LEMUR-1                 
1 40044U 14033AL  26201.84286789  .00000947  00000+0  11442-3 0  9990
2 40044  97.7917 350.9099 0047303 329.1490  30.6947 14.85347100650467
LEMUR-2-GREENBERG       
1 42837U 17042N   26201.85929411  .00012166  00000+0  39253-3 0  9998
2 42837  97.3843  22.3562 0007488 235.8206 124.2326 15.32264900493540
LEMUR-2-ANDIS           
1 42838U 17042P   26201.02642207  .00012331  00000+0  35312-3 0  9999
2 42838  97.3691  21.8287 0007452 238.1835 121.8684 15.36045973493490
LEMUR-2-MONSON          
1 42839U 17042Q   26201.94201997  .00010588  00000+0  38004-3 0  9991
2 42839  97.4104  22.3576 0005712 221.3717 138.7091 15.28850794493325
LEMUR-2-FURIAUS         
1 42840U 17042R   26201.94133631  .00012138  00000+0  40434-3 0  9995
2 42840  97.3789  20.3171 0005684 304.8724  55.1982 15.31247624493379
LEMUR-2-PETERG          
1 42841U 17042S   26201.42122736  .00011672  00000+0  34433-3 0  9997
2 42841  97.4006  26.5391 0003703 198.4784 161.6325 15.35147787493533
LEMUR-2-DEMBITZ         
1 42842U 17042T   26201.43837506  .00009691  00000+0  32387-3 0  9991
2 42842  97.3838  22.8641 0005210 250.0193 110.0487 15.31206759493434
LEMUR-2-ZACHARY         
1 42845U 17042W   26201.91612851  .00036465  00000+0  58277-3 0  9996
2 42845  97.3582  34.3397 0002986 219.5977 140.5058 15.53082413494432
LEMUR-2-AMANDA-SVANTE   
1 48269U 21034B   26201.85766337  .00023761  00000+0  67482-3 0  9993
2 48269  97.5740 281.0779 0004787 131.0230 229.1428 15.36180869286228
LEMUR-2-SPECIAL-K       
1 48273U 21034F   26201.79486637  .00222432  00000+0  13543-2 0  9997
2 48273  97.5625 291.3914 0006193 210.4851 149.6055 15.76795894286961
LEMUR-2-EMBRIONOVIS     
1 56970U 23084AQ  26201.90437231  .00010011  00000+0  26695-3 0  9997
2 56970  97.6332 347.4260 0008768 185.5549 174.5599 15.38325154172862
LEMUR-2-DEVERILL-M-T    
1 57391U 23100F   26201.87934155  .00019184  00000+0  46319-3 0  9992
2 57391  99.4447 250.4120 0004793 272.8645  87.2047 15.41269407166432
LEMUR-2-BASS            
1 58259U 23174D   26201.78915575  .00010852  00000+0  23892-3 0  9996
2 58259  97.3837 286.9953 0007288  61.4078 298.7903 15.44109921150540
LEMUR-2-JK0903EM1407    
1 58336U 23174CJ  26201.78852784  .00018420  00000+0  29397-3 0  9999
2 58336  97.3917 293.2459 0003027  10.0504 350.0809 15.53256968150943
LEMUR-2-MJR092620       
1 58340U 23174CN  26201.89202073  .00013894  00000+0  28650-3 0  9997
2 58340  97.3966 292.5697 0004772   8.9922 351.1412 15.45994532150855
LEMUR-2-NIMBUS2000      
1 58899U 24022A   26201.33285010  .00012813  00000+0  30980-3 0  9999
2 58899  97.4083  51.7757 0008203  10.9156 349.2267 15.41247209137378
LEMUR-2-VALHALLA        
1 58900U 24022B   26201.85948288  .00011474  00000+0  28370-3 0  9994
2 58900  97.4081  52.2740 0008618   4.3557 355.7763 15.40595623137456
LEMUR-2-CAEL            
1 58903U 24022E   26201.84005021  .00012655  00000+0  29886-3 0  9990
2 58903  97.4058  53.2514 0006554 347.9089  12.2000 15.41973973137522
LEMUR-2-JOHNNYTRUONG    
1 59146U 24043BA  26201.91687064  .00033456  00000+0  37114-3 0  9999
2 59146  97.5400 355.7788 0003732  76.6375 283.5299 15.62877464133302
LEMUR-2-TOMATOKECHUP    
1 60471U 24149D   26201.77996646  .00006701  00000+0  18951-3 0  9993
2 60471  97.3785 283.9261 0003431 111.5100 248.6510 15.36651781107322
LEMUR-2-STELLA          
1 60533U 24149BT  26201.76364279  .00006585  00000+0  38266-3 0  9993
2 60533  97.6727 284.3799 0001383 122.2813 237.8552 15.12439052105575
LEMUR-2-MARHISYAM       
1 60536U 24149BW  26201.95530361  .00006575  00000+0  38841-3 0  9992
2 60536  97.6870 285.0551 0002206  61.2310 298.9141 15.11842816105588
LEMUR-2-AHMED-ASRAR     
1 60576U 24149DN  26201.88985907  .00007707  00000+0  43558-3 0  9997
2 60576  97.6996 287.2150 0001721 181.6001 178.5224 15.13381666105662
LEMUR-2-LLOYD           
1 60577U 24149DP  26201.84841122  .00007186  00000+0  44840-3 0  9990
2 60577  97.6730 283.0077 0004218  56.5433 303.6198 15.09809945105474
LEMUR-2-SQUIRRELCOMM    
1 60578U 24149DQ  26201.77932695  .00003857  00000+0  25845-3 0  9994
2 60578  97.6699 282.5908 0004006 299.4293  60.6535 15.07479136105460
LEMUR-2-SIERRINI        
1 60579U 24149DR  26201.85280073  .00007975  00000+0  47346-3 0  9995
2 60579  97.6829 284.6077 0006038  75.9770 284.2131 15.11580407105544
LEMUR-2-WILSON          
1 62694U 25009CP  26201.75608632  .00001371  00000+0  12963-3 0  9996
2 62694  97.7016 279.6322 0001611 291.2101  68.8947 14.95288693 82372
LEMUR-2-STAR-FOX        
1 62696U 25009CR  26201.78626918  .00004619  00000+0  34884-3 0  9992
2 62696  97.6899 283.1533 0001610  20.1847 339.9442 15.02884188 82609
LEMUR-2-ARIANNA         
1 62699U 25009CU  26201.71814555  .00004862  00000+0  36687-3 0  9997
2 62699  97.6840 282.8336 0001909  29.6722 330.4611 15.02887787 82592
LEMUR-2-ALISIA          
1 62706U 25009DB  26201.95555120  .00005293  00000+0  39544-3 0  9996
2 62706  97.6959 283.9056 0004915 113.8505 246.3236 15.03225167105232
